[{"OBJECT_NAME":"STARLINK-2736","OBJECT_ID":"2021-044C","EPOCH":"2026-03-09T12:40:19.816896","MEAN_MOTION":15.30205471,"ECCENTRICITY":0.00013773,"INCLINATION":53.1613,"RA_OF_ASC_NODE":114.585,"ARG_OF_PERICENTER":87.0996,"MEAN_ANOMALY":273.0163,"EPHEMERIS_TYPE":0,"CLASSIFICATION_TYPE":"U","NORAD_CAT_ID":48640,"ELEMENT_SET_NO":999,"REV_AT_EPOCH":26379,"BSTAR":1.8777589e-5,"MEAN_MOTION_DOT":1.97e-6,"MEAN_MOTION_DDOT":0},{"OBJECT_NAME":"SIMSAT 2","OBJECT_ID":"2000-026B","EPOCH":"2026-03-09T20:25:01.673184","MEAN_MOTION":15.29036787,"ECCENTRICITY":0.00037035,"INCLINATION":86.3514,"RA_OF_ASC_NODE":176.4271,"ARG_OF_PERICENTER":287.9875,"MEAN_ANOMALY":72.0969,"EPHEMERIS_TYPE":0,"CLASSIFICATION_TYPE":"U","NORAD_CAT_ID":26366,"ELEMENT_SET_NO":999,"REV_AT_EPOCH":42803,"BSTAR":0.00013465771,"MEAN_MOTION_DOT":3.833e-5,"MEAN_MOTION_DDOT":0}]
